********************************************************************************
              CENTRO DE INSTRUMENTACION Y REGISTRO SISMICO  A.C.

    Anaxagoras 814, Col. Narvarte, Benito Juarez, C.P. 03020 Mexico, D.F.
           Tels. 5687 45 42/ 5687 45  82             Fax. 5669 25 12
********************************************************************************
ARCHIVO ESTANDAR DE ACELERACION:
VERSION DEL FORMATO                    : 2.0
NOMBRE DEL ARCHIVO                     : CS6620170919181440
FECHA Y HORA DE CREACION               : 12/OCT/17, 11:34
REF. CATALOGO ACELEROGRAMAS, SMIS 1996 : REGISTRO No.     /PAG.


================================================================================
DATOS DE LA ESTACION:
NOMBRE DE LA ESTACION                  : CENTRAL DE ABASTO (SUPERFICIE)
CLAVE DE LA ESTACION                   : CS66
LOCALIZACION DE LA ESTACION            : Del. Iztapalapa, Central de Abasto     
                                       : Oficinas, Eje 4 Oriente.               
                                       :                                        
                                       :                                        
                                       : 
COORDENADAS DE LA ESTACION             : 19.3728 LAT. N
                                       : 99.0983 LONG. W
ALTITUD (msnm)                         : 2247
TIPO DE SUELO                          : Arcilloso, zona lago                
                                       :                           
                                       : 
INSTITUCION RESPONSABLE                : CIRES, A. C.
                                       : 

================================================================================
DATOS DEL ACELEROGRAFO:
MODELO DEL ACELEROGRAFO                : 
NUMERO DE SERIE DEL ACELEROGRAFO       : 
NUMERO DE CANALES                      : 3
ORIENTACION C1-C6 (rumbo;orientacion)  : /N00E/V/N90W
ORIENTACION C7-C12 (rumbo;orientacion) : 
VEL. DE MUESTREO, C1-C6 (muestras/s)   : /200/200/200
VEL. DE MUESTREO, C7-C12 (muestras/s)  : 
ESC. COMPLETA DE SENSORES, C1-C6, (g)  : /8.0/8.0/8.0
ESC. COMPLETA DE SENSORES, C7-C12, (g) : 
FREC. NAT. DE SENSORES, C1-C6, (Hz)    : /500/500/500
FREC. NAT. DE SENSORES, C7-C12, (Hz)   : 
AMORTIGUAMIENTO DE SENSORES, C1-C6     : /0.700/0.700/0.700
AMORTIGUAMIENTO DE SENSORES, C7-C12    : 
INTERVALO DE MUESTREO, C1-C6, (s)      : /0.005/0.005/0.005
INTERVALO DE MUESTREO, C7-C12, (s)     : 
UMBRAL DE DISPARO, C1-C6, (Gal)        : /5/5   5/56
UMBRAL DE DISPARO, C7-C12, (Gal)       : 
MEMORIA DE PREEVENTO (s)               : 6
TIEMPO DE POSEVENTO (s)                : 4


================================================================================
DATOS DEL SISMO:
FECHA DEL SISMO (GMT)                  : 19/SEP/17
HORA EPICENTRO (GMT)                   : 18:14:40.0
MAGNITUD(ES)                           : /Mc=7.1
COORDENADAS DEL EPICENTRO              : 18.40 LAT. N
                                       : 98.72 LONG. W
PROFUNDIDAD FOCAL (km)                 : 57
FUENTE DE LOS DATOS EPICENTRALES       : SSN
                                       : INSTITUTO DE GEOFISICA, UNAM

================================================================================
DATOS DE ESTE REGISTRO:
HORA DE LA PRIMERA MUESTRA (GMT)       : .00
EXACTITUD DEL TIEMPO (s)               : 
DURACION DEL REGISTRO (s), C1-C6       : /459.625/459.625/459.625
DURACION DEL REGISTRO (s), C7-C12      : 
NUM. TOTAL DE MUESTRAS, C1-C6          : /91925/91925/91925
NUM. TOTAL DE MUESTRAS, C7-C12         : 
ACEL. MAX. (Gal), C1-C6                : /133.44493/58.66729/106.87123
ACEL. MAX., C1-C6, EN LA MUESTRA       : /16949/17523/16806
ACEL. MAX. (Gal), C7-C12               : 
ACEL. MAX., C7-C12, EN LA MUESTRA      : 
UNIDADES DE LOS DATOS                  : Gal (cm/s/s)
FACTOR DE DECIMACION                   : 1
FORMATO DATOS (FORTRAN,10 campos/dato) : 3F10.5


================================================================================
CALIDAD DEL ACELEROGRAMA:
REGISTRO DIGITAL COMPLETO CON TIEMPO ABSOLUTO CORRECTO.


================================================================================
COMENTARIOS:














================================================================================
DATOS DE ACELERACION:
---------+---------+---------+---------+---------+---------+---------+---------+
   CANAL-1   CANAL-2   CANAL-3   CANAL-4   CANAL-5   CANAL-6   CANAL-7   CANAL-8
      N00E        +V      N90W
---------+---------+---------+---------+---------+---------+---------+---------+
[...]
  92.55872  -3.24885 -29.73099
  95.09003  -3.42841 -28.04569
  97.39913  -3.17216 -25.46912
  99.41643  -2.40339 -22.27529
 101.19431  -1.06320 -18.19954
 102.49242   0.83906 -13.70106
 103.26024   3.14629  -8.72095
 103.38276   5.87343  -3.64356
 103.22658   8.70346   1.71815
 102.66918  11.72709   7.77099
 102.23055  14.91344  13.32162
 101.68063  18.58610  19.56993
 100.54339  22.45985  25.96413
 100.43490  25.17858  31.63633
 100.33763  26.90783  38.00060
  99.49031  27.80472  43.36511
  99.26866  28.52298  46.98167
  98.34839  30.24007  49.24213
  96.05332  32.07500  50.86757
  94.26422  33.03268  52.78480
  92.90663  33.24778  54.11938
  90.71444  32.89614  54.76843
  88.69527  31.65695  54.34010
  87.58608  29.37685  52.79883
  86.67048  26.76661  50.89188
  85.75489  24.39859  49.09156
  85.12828  22.30179  47.65129
  84.65505  20.22090  46.10816
  84.09952  17.67612  44.87552
  84.12945  14.86387  43.15188
  84.85706  11.98896  40.33121
  85.64360   9.65461  36.38452
  86.61998   8.46683  30.85167
  88.55218   6.99290  26.51218
  91.53558   4.64453  23.76081
  94.42976   2.07450  20.42763
  96.90626  -0.68444  15.70937
 100.47231  -3.99330  10.07458
 105.45337  -7.55374   4.18256
 109.89667 -10.08727  -3.08328
 114.50925 -12.10457  -9.87492
 119.99908 -14.31359 -15.36381
 124.03649 -16.03910 -20.43279
 126.86838 -17.07067 -23.40216
 128.85576 -17.23433 -24.55530
 129.70495 -16.89484 -24.16157
 129.96494 -16.41787 -22.81857
 129.08208 -16.07651 -21.83844
 127.13305 -16.69470 -20.28689
 123.95138 -17.30073 -18.90087
 119.88498 -16.66477 -18.48376
 115.47348 -15.29372 -17.36896
 109.79754 -13.52332 -13.94880
 102.86090 -11.58832  -8.45430
  94.77766 -10.03583  -2.59973
  85.42017  -9.79454   4.54267
  75.94250 -11.50508  12.83352
  66.85201 -13.68511  20.93359
  57.35938 -14.23129  28.89431
  47.67034 -13.38771  35.81692
  38.52281 -12.56564  43.16413
  30.31051 -12.15226  50.85363
  23.64977 -12.32622  58.24947
  18.56676 -13.32692  65.31891
  13.63620 -14.17331  69.58452
   8.69256 -13.30073  71.23708
   5.06666 -10.57920  70.92845
   1.81952  -6.92153  69.19920
  -1.77271  -3.06555  67.29600
  -4.67755   0.78387  64.99345
  -6.62658   5.04855  62.40566
  -8.45496   9.70885  59.87304
 -10.85386  13.89777  57.75006
 -12.69160  16.70535  56.51470
 -13.43698  18.62726  55.55515
 -14.25999  20.37240  54.00640
 -15.32428  21.08973  51.92270
 -16.17815  20.62118  48.83362
 -16.99835  19.62047  44.14435
 -17.91676  18.28122  38.64984
 -18.67336  16.53326  33.25354
 -19.20831  14.47575  28.04147
 -19.64507  12.64549  22.99962
 -19.91535  11.10142  18.28417
 -19.85540   9.92115  13.65849
 -19.42894   9.65835   8.93180
 -18.83974  10.76567   4.51375
 -18.22248  13.27303   0.82519
 -17.49674  16.53981  -1.98800
 -16.64755  19.88421  -4.25875
 -15.47289  22.73948  -6.35460
 -13.85774  24.65672  -7.85846
 -12.32863  25.62936  -8.66650
 -11.17923  25.51620  -9.10700
 -10.64708  24.22183  -8.56362
 -10.96880  21.87346  -7.09062
 -11.41771  18.42805  -5.26317
 -11.90310  14.18489  -2.68566
 -12.56525   9.38994  -0.09038
 -12.94776   4.32373   2.25706
 -13.32466  -0.82193   5.03939
 -13.82033  -5.97601   8.35947
 -14.33845 -10.32575  12.03586
 -14.81075 -13.42793  15.79364
 -15.87878 -15.29652  20.31550
 -17.26013 -16.22428  24.48197
 -18.76305 -16.32622  28.81959
 -21.41163 -16.08399  34.11302
 -22.76960 -16.44125  38.11115
 -23.03053 -16.14011  41.42749
 -24.40158 -14.35661  44.21917
 -25.22365 -11.69119  46.64049
 -25.91105  -8.24021  49.36493
 -27.35225  -4.46935  52.04157
 -28.81870  -0.70970  54.91835
 -30.09155   2.65902  57.00205
 -31.09132   5.77896  58.31793
 -31.70857   9.01394  59.22698
 -31.58980  11.97025  59.43647
 -31.07448  14.49632  59.28964
 -30.56759  16.46406  58.64526
 -30.12054  17.95202  57.22184
 -29.90544  19.20804  55.05022
 -29.69875  20.36866  52.03970
 -29.34617  21.33008  48.21926
 -28.40532  21.51058  43.66467
 -26.50025  20.98031  38.26275
 -24.22295  20.02543  32.10984
 -21.68098  18.21388  25.59873
 -18.69197  15.28940  19.33079
 -15.47757  11.85148  12.94313
 -11.96006   8.58185   6.26930
  -8.45765   5.82291  -0.24181
  -5.52661   3.75697  -6.64162
  -3.00241   2.34383 -12.20627
  -0.97950   1.81916 -17.25093
   0.31300   2.02866 -22.55558
   1.47643   2.63375 -27.33557
   2.72217   3.73640 -31.47211
   3.64992   5.04198 -35.02788
   4.08200   6.41117 -37.66618
   4.05207   7.77942 -39.56470
   3.74065   8.95781 -40.61591
   3.03455   9.84914 -40.54670
   2.22651  10.03245 -39.23831
   1.70932   9.65461 -36.40641
   1.09674   9.33284 -32.63461
   0.47856   9.34594 -28.13239
  -0.37905   9.33004 -22.71831
  -1.82492   8.53322 -16.93389
  -3.75151   7.40719 -10.71177
  -5.70895   6.48879  -4.97686
  -7.48589   5.40018   1.26864
  -9.54154   3.46892   8.19687
 -11.49711   0.01977  15.81627
 -14.59742  -4.46374  24.34187
 -17.37600  -9.30171  28.89179
 -18.47490 -14.00225  33.24531
 -20.25653 -18.78308  37.64278
 -19.99092 -23.31439  37.17330
 -19.08187 -25.22498  36.21187
 -20.76342 -24.12898  33.50437
 -21.89973 -21.59169  29.59789
 -22.09520 -19.20684  26.59485
 -21.86607 -18.04527  23.77979
 -20.49033 -18.42779  22.44802
 -18.24390 -20.60688  20.31662
 -15.45129 -23.00015  15.67224
 -11.22964 -24.03545   7.93877
  -5.52374 -24.11682  -2.03176
  -0.31167 -23.73992 -12.87207
   3.97732 -23.60712 -22.76966
   8.34767 -24.45631 -30.32729
  13.31841 -26.68872 -37.21904
  18.61839 -29.63471 -44.56905
  23.66398 -31.79510 -52.78322
  28.31771 -33.25781 -60.04345
  32.15881 -34.59706 -65.92327
  34.46978 -36.30480 -71.39440
  36.40852 -39.05159 -75.39159
  39.20862 -42.09858 -78.96138
  41.70289 -44.76400 -83.39627
  43.24228 -46.93188 -88.65884
  44.57312 -48.14862 -94.61497
  46.29770 -48.53113-100.39005
  47.74918 -48.34408-103.88409
  47.75199 -48.12898-105.31219
  46.76344 -48.56012-106.53548
  45.41390 -49.75816-106.64677
  43.04776 -51.20871-106.61965
  39.29746 -51.93258-106.87123
  34.62690 -52.70695-103.40992
  29.79735 -54.72426 -94.85720
  25.21656 -56.66674 -83.88998
  20.13543 -56.82479 -74.50490
  14.52496 -55.02073 -68.99636
   8.91821 -51.82129 -65.05902
   2.68674 -48.04574 -60.21731
  -3.85335 -44.75185 -53.95965
  -9.40958 -42.87109 -46.10087
 -13.12339 -42.83555 -39.29984
 -14.11568 -44.53207 -35.03985
 -12.77549 -47.51172 -31.85818
 -11.21271 -50.69994 -29.12916
 -10.24100 -52.80235 -26.39734
  -9.09065 -53.12781 -25.50980
  -7.61111 -51.88488 -26.73683
  -5.96883 -50.15283 -28.39687
  -3.67376 -48.51523 -30.85093
  -0.64921 -46.85238 -32.77377
   2.37347 -44.91645 -33.65009
   6.04614 -42.95900 -34.29166
  10.90747 -41.39529 -35.39804
  15.73422 -39.20216 -37.88203
  19.80436 -35.81193 -41.63700
  23.31243 -31.98495 -45.92505
  26.78402 -28.44041 -49.62203
  29.96382 -25.40651 -53.38635
  32.89110 -22.59706 -57.64354
  36.49737 -20.12150 -61.36952
  40.26169 -17.82082 -64.48198
  43.67249 -15.47525 -67.11934
  46.69237 -13.33543 -69.64541
  48.92487 -11.46122 -72.31458
  50.56246 -10.02096 -74.54979
  51.75956  -8.89583 -76.01904
  52.60408  -7.94189 -76.80370
  53.25781  -7.06464 -76.93838
  53.66838  -5.74877 -77.09363
  53.55802  -3.48176 -77.98201
  52.77523  -0.20095 -79.48867
  51.59964   3.26035 -80.58289
  49.99197   6.25591 -80.35283
  47.76892   8.72400 -79.33903
  44.94076  10.51026 -78.10359
  41.65996  11.80743 -76.78584
  37.91528  12.81561 -75.25299
  33.57298  13.36834 -72.91397
  29.06234  13.49553 -70.22423
  24.25804  13.70970 -68.07787
  18.78411  14.16235 -66.20646
  13.08011  14.32415 -64.03952
   7.57625  14.06228 -61.76316
   2.45677  13.33093 -59.64766
  -2.44385  11.99354 -57.87726
  -6.65522  10.27177 -57.06360
  -9.39545   8.58184 -57.01591
 -10.96384   7.60078 -57.29648
 -11.74196   7.38848 -58.29063
 -12.20303   7.70364 -59.98247
 -12.48828   8.52386 -62.35516
 -12.11605   9.43006 -65.16835
 -11.28463  10.27177 -67.95535
 -10.18479  11.06111 -70.70775
  -8.66876  11.90189 -73.34698
  -7.01339  13.04942 -76.00866
  -5.23925  14.32321 -78.33646
  -3.23130  15.62880 -80.16110
  -0.99702  16.85583 -82.19430
   1.77034  17.81070 -84.39865
   4.70698  18.45227 -86.44214
   7.48089  18.35968 -88.29765
  10.25009  17.33186 -89.69582
  12.69667  15.64750 -90.64602
  14.81684  13.31783 -91.39795
  16.54235  10.51680 -91.73557
  17.56082   7.77472 -91.59435
  18.02751   5.26829 -90.93033
  18.20333   3.17150 -89.56854
  17.96765   1.96037 -87.77476
  17.20553   1.78174 -85.60875
  16.16181   2.61503 -82.91621
  14.77953   4.35270 -79.45771
  13.02596   6.54021 -74.97607
  10.99744   8.89420 -69.73033
   8.88658  11.39125 -64.21525
   7.12366  13.93322 -58.77593
   5.72081  16.32648 -53.50681
   4.54429  18.38400 -48.49302
   3.55855  19.87102 -43.84490
   2.75612  20.62669 -39.53814
   2.00701  20.70619 -35.67562
   1.16904  20.10109 -32.27791
   0.29085  18.86752 -29.14768
  -0.73323  17.20373 -26.32421
  -2.05753  15.25657 -24.07964
  -3.59972  13.19158 -22.51125
  -5.14753  11.07140 -21.50213
  -6.82628   9.02326 -20.96531
  -8.81927   7.35480 -20.79323
 -10.98620   6.33259 -20.70812
 -13.46550   6.10907 -20.43316
 -16.43300   6.72632 -19.87763
 -19.85316   8.14601 -19.17059
 -23.51367  10.12868 -18.44859
 -27.22094  12.47799 -17.60688
 -31.12087  15.00967 -16.57532
 -35.07317  17.40668 -15.40347
 -38.98807  19.77095 -14.11658
 -43.05540  22.19789 -12.77265
 -47.27238  24.56590 -11.02189
 -51.59878  26.95075  -8.75858
 -55.82043  29.30568  -6.01835
 -59.93079  31.50067  -2.58042
 -63.78302  33.43474   0.80233
 -67.47252  35.27528   4.04105
 -71.54079  37.11021   7.18157
 -75.60813  38.71227  10.18559
 -79.55482  40.30404  13.78625
 -83.10684  41.73775  17.54776
 -86.26139  42.62436  21.88819
 -89.43932  42.66551  26.03783
 -92.02338  41.56754  29.54028
 -94.85994  39.64937  33.32424
 -97.25414  36.72115  35.15450
 -97.95183  33.37769  35.08342
 -98.80102  30.51774  34.45120
 -99.71007  27.55866  33.75913
-100.35164  24.40878  34.24638
-101.81435  21.21402  35.57161
-103.68295  17.93228  37.59078
-105.74514  14.73284  40.43390
-108.63596  11.70268  43.71190
-112.01028   8.88858  46.57185
-115.18634   6.41488  48.27865
-118.36427   4.47988  48.84914
-121.59457   2.74689  48.79396
-124.74912   1.11210  48.51339
-127.66238  -0.16169  48.08319
-129.92845  -1.21944  47.67355
-131.58943  -2.20611  47.15169
-132.79214  -3.28538  46.60458
-133.43184  -4.40298  45.80495
-133.44493  -5.60756  44.86411
-132.75567  -7.33962  44.13930
-131.61000  -9.64032  43.35651
-130.33902 -12.46099  42.89450
-128.86602 -15.53230  42.31372
-127.07879 -18.36606  40.93051
-125.04372 -20.81544  39.47154
-122.98433 -22.68217  38.26696
-120.68833 -23.82222  37.13252
-117.93780 -24.46286  36.10470
-115.26210 -24.58257  35.02637
-112.79120 -23.96625  33.71236
-110.24549 -22.88044  32.06167
-107.48468 -21.34385  30.02950
-104.68085 -19.34057  27.59789
-101.99672 -17.32234  24.61356
 -98.67570 -15.36302  21.13916
 -94.74584 -13.31018  17.39448
 -90.98985 -11.24705  13.57404
 -87.27416  -9.29800   9.71246
 -83.66696  -7.26200   5.91444
 -80.39176  -5.24469   2.51205
 -77.31765  -3.75393  -0.54242
 -74.18367  -2.79531  -3.37805
 -70.97769  -1.94705  -5.92189
 -68.05040  -1.04923  -8.08041
 -65.53930  -0.15234  -9.73950
 -63.81472   0.54160 -10.90573
 -62.36043   0.61362 -11.89895
 -60.46368   0.61736 -12.81548
 -58.96450   0.65102 -13.49353
 -57.60280   0.34801 -14.03035
 -56.04844   0.54347 -14.34833
 -55.23198   1.04850 -14.57560
 -54.82796   1.51612 -14.77574
 -54.45293   2.24841 -14.73926
 -54.13588   2.92926 -14.72523
 -53.83474   3.42774 -14.80005
 -53.41669   3.74010 -14.76919
 -52.35239   4.32463 -14.59617
 -51.53032   5.66201 -14.50358
 -51.18241   7.12472 -14.71027
 -50.16394   8.20024 -14.90199
 -48.66102   8.94750 -15.04321
 -46.73443   9.17569 -15.17415
 -44.11110   8.87548 -14.95717
 -41.60654   8.26477 -14.83185
 -39.80715   7.04990 -14.84681
 -37.78891   4.86893 -14.64480
 -34.71760   1.85186 -14.49891
 -31.05335  -1.43830 -14.12481
 -27.32644  -4.49558 -13.61885
 -23.50226  -7.35459 -13.32322
 -19.40125  -9.88535 -13.10251
 -14.92615 -12.02797 -13.04639
  -9.65517 -14.15750 -13.06977
  -3.35916 -16.00646 -13.48128
   3.21087 -17.18579 -14.43709
   9.57420 -18.06211 -15.48923
  16.04602 -19.03382 -16.73590
  22.67684 -20.04948 -18.49040
  29.44140 -21.03896 -20.58065
  36.37803 -22.09484 -22.75039
  43.24921 -23.11238 -25.26430
  49.62751 -23.99898 -28.08497
  55.25388 -24.81825 -31.00197
  60.28825 -25.47759 -34.29680
  65.00090 -25.82924 -37.75063
  69.60880 -25.54960 -41.20445
  73.79024 -24.06725 -44.82755
  77.20104 -21.49910 -48.25519
  79.94222 -18.15657 -51.41348
  82.01376 -13.92463 -54.40529
  83.85056  -9.43176 -56.83503
  85.91463  -5.19420 -58.92622
  87.74862  -1.01931 -61.10345
  89.13099   2.84321 -63.14693
  90.48896   5.84251 -64.83597
  91.56167   7.73449 -65.95638
  92.10598   8.63699 -66.72140
  92.31079   8.60052 -67.23204
  92.08914   7.90096 -67.02068
  91.47563   7.18083 -66.27997
  89.91379   6.57012 -65.21474
  87.19693   5.60402 -63.30592
  84.27899   4.35268 -60.17102
  81.13380   3.72888 -56.20749
  77.70523   4.01412 -51.68656
  74.33745   5.08964 -46.11630
  70.56284   7.11162 -39.74268
  66.86679   9.44409 -32.91359
  63.90116  11.67369 -25.80665
  61.47703  13.99120 -18.86627
  59.07348  16.06462 -12.10826
  57.12070  17.82192  -5.53921
  56.00029  19.62319   1.00370
  54.42723  21.70502   6.25878
  52.84575  24.01879  10.43932
  51.25959  26.12401  14.37947
  49.83616  27.65686  16.78583
  48.70920  28.91101  19.71498
  47.19786  29.55632  22.78629
  47.50649  29.17287  24.04606
  47.91238  28.73425  25.43862
  46.99398  27.89628  26.74047
  47.10621  25.79013  27.56722
  47.25678  22.99658  28.63993
  47.41484  19.72606  28.86158
  48.30892  16.43684  28.06102
  48.54834  13.60027  27.44844
  48.52028  10.75996  25.98293
  49.51350   8.08332  23.38017
  50.66758   6.28206  20.15267
  51.58785   5.46653  16.04138
  53.04214   5.18222  11.98901
  54.35334   5.21589   7.82254
  55.44289   5.45812   3.64672
  57.10574   5.64797  -0.24385
  58.84715   5.90142  -3.79120
  60.37532   6.26803  -6.83539
  61.55465   6.52709  -9.72060
  62.70406   6.39522 -12.11294
  64.19118   5.76207 -14.37433
  65.27885   4.71367 -16.64696
  66.18323   3.17708 -18.71382
  66.79300   1.22805 -20.65911
  66.48157  -0.85191 -22.27801
  66.20006  -2.95245 -23.96797
  66.14395  -4.81825 -25.62521
  65.60432  -6.03592 -26.71757
  65.10490  -6.63073 -27.51055
  64.17715  -6.58303 -27.62184
  62.99407  -5.88535 -27.13365
  62.45912  -4.69199 -26.45467
  61.48554  -2.95713 -24.84139
  60.36887  -0.81918 -22.50611
  59.30738   1.59934 -19.58818
  57.91014   4.16843 -15.99220
  56.43901   6.85723 -12.21198
  54.40955   9.71811  -7.95575
  51.90593  12.52569  -3.16921
  49.66510  14.96385   1.72488
  47.62816  17.15604   6.93133
  44.88699  19.27715  12.06766
